*******************************************************************************
Ephemeris / WWW_USER Fri Mar  7 11:04:07 2025 Pasadena, USA      / Horizons    
*******************************************************************************
Target body name: (2018 UM1)                      {source: JPL#32}
Center body name: Earth (399)                     {source: DE441}
Center-site name: Mauna Kea
*******************************************************************************
Start time      : A.D. 2018-Sep-25 04:25:00.0000 UT      
Stop  time      : A.D. 2018-Sep-25 16:02:00.0000 UT      
Step-size       : 1 minutes
*******************************************************************************
Target pole/equ : undefined
Target radii    : undefined                                                    
Center geodetic : 204.5278, 19.8260847, 4.21024   {E-lon(deg),Lat(deg),Alt(km)}
Center cylindric: 204.5278, 6006.35451, 2151.0229 {E-lon(deg),Dxy(km),Dz(km)}
Center pole/equ : ITRF93                          {East-longitude positive}
Center radii    : 6378.137, 6378.137, 6356.752 km {Equator_a, b, pole_c}       
Target primary  : Sun
Vis. interferer : MOON (R_eq= 1737.400) km        {source: DE441}
Rel. light bend : Sun                             {source: DE441}
Rel. lght bnd GM: 1.3271E+11 km^3/s^2                                          
Small-body perts: Yes                             {source: SB441-N16}
Atmos refraction: NO (AIRLESS)
RA format       : HMS
Time format     : CAL 
Calendar mode   : Mixed Julian/Gregorian
RTS-only print  : NO       
EOP file        : eop.250306.p250602                                           
EOP coverage    : DATA-BASED 1962-JAN-20 TO 2025-MAR-06. PREDICTS-> 2025-JUN-01
Units conversion: 1 au= 149597870.700 km, c= 299792.458 km/s, 1 day= 86400.0 s 
Table cut-offs 1: Elevation (-90.0deg=NO ),Airmass (>38.000=NO), Daylight (YES)
Table cut-offs 2: Solar elongation (  0.0,180.0=NO ),Local Hour Angle( 0.0=NO )
Table cut-offs 3: RA/DEC angular rate (     0.0=NO )                           
*******************************************************************************
Initial IAU76/J2000 heliocentric ecliptic osculating elements (au, days, deg.):
  EPOCH=  2458316.5 ! 2018-Jul-17.00 (TDB)         Residual RMS= .13282        
   EC= .1732206266096905   QR= .9442469573310488   TP= 2458347.0882341689      
   OM= 261.2771090241423   W=  53.36399135060417   IN= 1.987806152492243       
  Equivalent ICRF heliocentric cartesian coordinates (au, au/d):
   X= 1.631856825953344E-01  Y=-8.815145891163165E-01  Z=-3.705958742828900E-01
  VX= 1.811434055353769E-02 VY= 4.114587132606022E-03 VZ= 2.434006136501484E-03
Asteroid physical parameters (km, seconds, rotational period in hours):        
   GM= n.a.                RAD= n.a.               ROTPER= n.a.                
   H= 23.64                G= .150                 B-V= n.a.                   
                           ALBEDO= n.a.            STYP= n.a.                  
*******************************************************************************
 Date__(UT)__HR:MN     R.A._________(ICRF)_________DEC
******************************************************
$$SOE
 2018-Sep-25 08:31  m  16 51 23.980009 +14 32 20.26137
 2018-Sep-25 08:32  m  16 51 24.420827 +14 32 22.47809
 2018-Sep-25 08:33  m  16 51 24.861854 +14 32 24.69476
 2018-Sep-25 08:34  m  16 51 25.303090 +14 32 26.91137
 2018-Sep-25 08:35  m  16 51 25.744536 +14 32 29.12794
 2018-Sep-25 08:36  m  16 51 26.186191 +14 32 31.34447
 2018-Sep-25 08:37  m  16 51 26.628055 +14 32 33.56095
 2018-Sep-25 08:38  m  16 51 27.070130 +14 32 35.77739
 2018-Sep-25 08:39  m  16 51 27.512414 +14 32 37.99380
 2018-Sep-25 08:40  m  16 51 27.954907 +14 32 40.21017
 2018-Sep-25 08:41  m  16 51 28.397611 +14 32 42.42651
 2018-Sep-25 08:42  m  16 51 28.840524 +14 32 44.64283
 2018-Sep-25 08:43  m  16 51 29.283648 +14 32 46.85912
 2018-Sep-25 08:44  m  16 51 29.726981 +14 32 49.07539
 2018-Sep-25 08:45  m  16 51 30.170525 +14 32 51.29165
 2018-Sep-25 08:46  m  16 51 30.614279 +14 32 53.50788
 2018-Sep-25 08:47  m  16 51 31.058243 +14 32 55.72411
 2018-Sep-25 08:48  m  16 51 31.502418 +14 32 57.94033
 2018-Sep-25 08:49  m  16 51 31.946802 +14 33 00.15654
 2018-Sep-25 08:50  m  16 51 32.391398 +14 33 02.37274
 2018-Sep-25 08:51  m  16 51 32.836203 +14 33 04.58895
 2018-Sep-25 08:52  m  16 51 33.281219 +14 33 06.80516
 2018-Sep-25 08:53  m  16 51 33.726446 +14 33 09.02138
 2018-Sep-25 08:54  m  16 51 34.171883 +14 33 11.23760
 2018-Sep-25 08:55  m  16 51 34.617531 +14 33 13.45384
 2018-Sep-25 08:56  m  16 51 35.063390 +14 33 15.67009
 2018-Sep-25 08:57  m  16 51 35.509459 +14 33 17.88636
 2018-Sep-25 08:58  m  16 51 35.955738 +14 33 20.10265
 2018-Sep-25 08:59  m  16 51 36.402229 +14 33 22.31897
 2018-Sep-25 09:00  m  16 51 36.848930 +14 33 24.53531
 2018-Sep-25 09:01  m  16 51 37.295841 +14 33 26.75168
 2018-Sep-25 09:02  m  16 51 37.742964 +14 33 28.96808
 2018-Sep-25 09:03  m  16 51 38.190297 +14 33 31.18452
 2018-Sep-25 09:04  m  16 51 38.637841 +14 33 33.40100
 2018-Sep-25 09:05  m  16 51 39.085595 +14 33 35.61752
 2018-Sep-25 09:06  m  16 51 39.533560 +14 33 37.83408
 2018-Sep-25 09:07  m  16 51 39.981736 +14 33 40.05070
 2018-Sep-25 09:08  m  16 51 40.430123 +14 33 42.26736
 2018-Sep-25 09:09  m  16 51 40.878720 +14 33 44.48408
 2018-Sep-25 09:10  m  16 51 41.327527 +14 33 46.70085
 2018-Sep-25 09:11  m  16 51 41.776545 +14 33 48.91769
 2018-Sep-25 09:12  m  16 51 42.225774 +14 33 51.13458
 2018-Sep-25 09:13  m  16 51 42.675213 +14 33 53.35155
 2018-Sep-25 09:14  m  16 51 43.124863 +14 33 55.56858
 2018-Sep-25 09:15  m  16 51 43.574723 +14 33 57.78568
 2018-Sep-25 09:16  m  16 51 44.024793 +14 34 00.00286
 2018-Sep-25 09:17  m  16 51 44.475074 +14 34 02.22012
 2018-Sep-25 09:18  m  16 51 44.925565 +14 34 04.43746
 2018-Sep-25 09:19  m  16 51 45.376266 +14 34 06.65488
 2018-Sep-25 09:20  m  16 51 45.827177 +14 34 08.87239
 2018-Sep-25 09:21  m  16 51 46.278299 +14 34 11.08999
 2018-Sep-25 09:22  m  16 51 46.729630 +14 34 13.30768
 2018-Sep-25 09:23  m  16 51 47.181171 +14 34 15.52546
 2018-Sep-25 09:24  m  16 51 47.632923 +14 34 17.74335
 2018-Sep-25 09:25  m  16 51 48.084883 +14 34 19.96134
 2018-Sep-25 09:26  m  16 51 48.537054 +14 34 22.17943
 2018-Sep-25 09:27  m  16 51 48.989434 +14 34 24.39764
 2018-Sep-25 09:28  m  16 51 49.442024 +14 34 26.61595
 2018-Sep-25 09:29  m  16 51 49.894823 +14 34 28.83437
 2018-Sep-25 09:30  m  16 51 50.347832 +14 34 31.05292
 2018-Sep-25 09:31  m  16 51 50.801050 +14 34 33.27158
 2018-Sep-25 09:32  s  16 51 51.254477 +14 34 35.49037
 2018-Sep-25 09:33  m  16 51 51.708113 +14 34 37.70928
 2018-Sep-25 09:34  m  16 51 52.161957 +14 34 39.92832
 2018-Sep-25 09:35  m  16 51 52.616011 +14 34 42.14749
 2018-Sep-25 09:36  m  16 51 53.070273 +14 34 44.36680
 2018-Sep-25 09:37  m  16 51 53.524744 +14 34 46.58625
 2018-Sep-25 09:38  m  16 51 53.979424 +14 34 48.80584
 2018-Sep-25 09:39  m  16 51 54.434311 +14 34 51.02557
 2018-Sep-25 09:40  m  16 51 54.889407 +14 34 53.24544
 2018-Sep-25 09:41  m  16 51 55.344711 +14 34 55.46547
 2018-Sep-25 09:42  m  16 51 55.800222 +14 34 57.68565
 2018-Sep-25 09:43  m  16 51 56.255942 +14 34 59.90599
 2018-Sep-25 09:44  m  16 51 56.711869 +14 35 02.12648
 2018-Sep-25 09:45  m  16 51 57.168004 +14 35 04.34714
 2018-Sep-25 09:46  m  16 51 57.624345 +14 35 06.56796
 2018-Sep-25 09:47  m  16 51 58.080894 +14 35 08.78895
 2018-Sep-25 09:48  m  16 51 58.537650 +14 35 11.01011
 2018-Sep-25 09:49  m  16 51 58.994613 +14 35 13.23145
 2018-Sep-25 09:50  m  16 51 59.451783 +14 35 15.45296
 2018-Sep-25 09:51  m  16 51 59.909159 +14 35 17.67465
 2018-Sep-25 09:52  m  16 52 00.366741 +14 35 19.89652
 2018-Sep-25 09:53  m  16 52 00.824529 +14 35 22.11858
 2018-Sep-25 09:54  m  16 52 01.282523 +14 35 24.34083
 2018-Sep-25 09:55  m  16 52 01.740724 +14 35 26.56327
 2018-Sep-25 09:56  m  16 52 02.199129 +14 35 28.78590
 2018-Sep-25 09:57  m  16 52 02.657740 +14 35 31.00873
 2018-Sep-25 09:58  m  16 52 03.116557 +14 35 33.23176
 2018-Sep-25 09:59  m  16 52 03.575578 +14 35 35.45499
 2018-Sep-25 10:00  m  16 52 04.034804 +14 35 37.67843
 2018-Sep-25 10:01  m  16 52 04.494234 +14 35 39.90208
 2018-Sep-25 10:02  m  16 52 04.953869 +14 35 42.12594
 2018-Sep-25 10:03  m  16 52 05.413709 +14 35 44.35002
 2018-Sep-25 10:04  m  16 52 05.873752 +14 35 46.57431
 2018-Sep-25 10:05  m  16 52 06.333998 +14 35 48.79883
 2018-Sep-25 10:06  m  16 52 06.794449 +14 35 51.02357
 2018-Sep-25 10:07  m  16 52 07.255102 +14 35 53.24854
 2018-Sep-25 10:08  m  16 52 07.715959 +14 35 55.47373
 2018-Sep-25 10:09  m  16 52 08.177018 +14 35 57.69916
 2018-Sep-25 10:10  m  16 52 08.638280 +14 35 59.92482
 2018-Sep-25 10:11  m  16 52 09.099745 +14 36 02.15073
 2018-Sep-25 10:12  m  16 52 09.561411 +14 36 04.37687
 2018-Sep-25 10:13  m  16 52 10.023279 +14 36 06.60326
 2018-Sep-25 10:14  m  16 52 10.485349 +14 36 08.82989
 2018-Sep-25 10:15  m  16 52 10.947620 +14 36 11.05678
 2018-Sep-25 10:16  m  16 52 11.410093 +14 36 13.28391
 2018-Sep-25 10:17  m  16 52 11.872766 +14 36 15.51131
 2018-Sep-25 10:18  m  16 52 12.335639 +14 36 17.73896
 2018-Sep-25 10:19  m  16 52 12.798713 +14 36 19.96687
 2018-Sep-25 10:20  m  16 52 13.261987 +14 36 22.19505
 2018-Sep-25 10:21  m  16 52 13.725461 +14 36 24.42350
 2018-Sep-25 10:22  m  16 52 14.189134 +14 36 26.65221
 2018-Sep-25 10:23  m  16 52 14.653006 +14 36 28.88120
 2018-Sep-25 10:24  m  16 52 15.117078 +14 36 31.11047
 2018-Sep-25 10:25  m  16 52 15.581347 +14 36 33.34001
 2018-Sep-25 10:26  m  16 52 16.045815 +14 36 35.56984
 2018-Sep-25 10:27  m  16 52 16.510482 +14 36 37.79995
 2018-Sep-25 10:28  m  16 52 16.975345 +14 36 40.03035
 2018-Sep-25 10:29  m  16 52 17.440407 +14 36 42.26103
 2018-Sep-25 10:30  m  16 52 17.905665 +14 36 44.49201
 2018-Sep-25 10:31  m  16 52 18.371120 +14 36 46.72329
 2018-Sep-25 10:32  m  16 52 18.836772 +14 36 48.95487
 2018-Sep-25 10:33  m  16 52 19.302620 +14 36 51.18674
